[{"OBJECT_NAME":"ONEWEB-0206","OBJECT_ID":"2021-031T","EPOCH":"2026-02-26T04:58:20.580096","MEAN_MOTION":13.14502481,"ECCENTRICITY":0.00014733,"INCLINATION":87.9022,"RA_OF_ASC_NODE":311.8296,"ARG_OF_PERICENTER":83.089,"MEAN_ANOMALY":277.0407,"EPHEMERIS_TYPE":0,"CLASSIFICATION_TYPE":"U","NORAD_CAT_ID":48227,"ELEMENT_SET_NO":999,"REV_AT_EPOCH":23364,"BSTAR":-0.00027785441,"MEAN_MOTION_DOT":-9.0e-7,"MEAN_MOTION_DDOT":0},{"OBJECT_NAME":"ONEWEB-0182","OBJECT_ID":"2021-031U","EPOCH":"2026-02-26T04:51:28.697472","MEAN_MOTION":13.14501569,"ECCENTRICITY":0.00016603,"INCLINATION":87.8999,"RA_OF_ASC_NODE":311.8463,"ARG_OF_PERICENTER":72.0806,"MEAN_ANOMALY":288.0505,"EPHEMERIS_TYPE":0,"CLASSIFICATION_TYPE":"U","NORAD_CAT_ID":48228,"ELEMENT_SET_NO":999,"REV_AT_EPOCH":23385,"BSTAR":-0.00031377523,"MEAN_MOTION_DOT":-1.04e-6,"MEAN_MOTION_DDOT":0},{"OBJECT_NAME":"ONEWEB-0186","OBJECT_ID":"2021-031V","EPOCH":"2026-02-26T05:07:28.858080","MEAN_MOTION":13.14502223,"ECCENTRICITY":0.00021853,"INCLINATION":87.8998,"RA_OF_ASC_NODE":311.8319,"ARG_OF_PERICENTER":73.6346,"MEAN_ANOMALY":286.5024,"EPHEMERIS_TYPE":0,"CLASSIFICATION_TYPE":"U","NORAD_CAT_ID":48229,"ELEMENT_SET_NO":999,"REV_AT_EPOCH":23380,"BSTAR":0.00015363835,"MEAN_MOTION_DOT":7.0e-7,"MEAN_MOTION_DDOT":0},{"OBJECT_NAME":"ONEWEB-0181","OBJECT_ID":"2021-031W","EPOCH":"2026-02-26T04:35:29.621184","MEAN_MOTION":13.14501084,"ECCENTRICITY":0.00018586,"INCLINATION":87.8985,"RA_OF_ASC_NODE":311.8792,"ARG_OF_PERICENTER":81.8264,"MEAN_ANOMALY":278.3076,"EPHEMERIS_TYPE":0,"CLASSIFICATION_TYPE":"U","NORAD_CAT_ID":48230,"ELEMENT_SET_NO":999,"REV_AT_EPOCH":23365,"BSTAR":-0.00065077005,"MEAN_MOTION_DOT":-2.28e-6,"MEAN_MOTION_DDOT":0},{"OBJECT_NAME":"ONEWEB-0188","OBJECT_ID":"2021-031X","EPOCH":"2026-02-26T05:30:18.463968","MEAN_MOTION":13.14501477,"ECCENTRICITY":0.00017502,"INCLINATION":87.8995,"RA_OF_ASC_NODE":311.8688,"ARG_OF_PERICENTER":77.1979,"MEAN_ANOMALY":282.9346,"EPHEMERIS_TYPE":0,"CLASSIFICATION_TYPE":"U","NORAD_CAT_ID":48231,"ELEMENT_SET_NO":999,"REV_AT_EPOCH":23356,"BSTAR":0.00057246951,"MEAN_MOTION_DOT":2.25e-6,"MEAN_MOTION_DDOT":0},{"OBJECT_NAME":"ONEWEB-0220","OBJECT_ID":"2021-031Y","EPOCH":"2026-02-26T04:37:46.635168","MEAN_MOTION":13.1450065,"ECCENTRICITY":0.00019436,"INCLINATION":87.9006,"RA_OF_ASC_NODE":311.8345,"ARG_OF_PERICENTER":75.8516,"MEAN_ANOMALY":284.283,"EPHEMERIS_TYPE":0,"CLASSIFICATION_TYPE":"U","NORAD_CAT_ID":48232,"ELEMENT_SET_NO":999,"REV_AT_EPOCH":23382,"BSTAR":-0.00051118921,"MEAN_MOTION_DOT":-1.77e-6,"MEAN_MOTION_DDOT":0},{"OBJECT_NAME":"ONEWEB-0165","OBJECT_ID":"2021-031Z","EPOCH":"2026-02-26T05:18:53.187552","MEAN_MOTION":13.1450197,"ECCENTRICITY":0.00019351,"INCLINATION":87.9001,"RA_OF_ASC_NODE":311.8451,"ARG_OF_PERICENTER":86.6895,"MEAN_ANOMALY":273.4457,"EPHEMERIS_TYPE":0,"CLASSIFICATION_TYPE":"U","NORAD_CAT_ID":48233,"ELEMENT_SET_NO":999,"REV_AT_EPOCH":23378,"BSTAR":0.00076629962,"MEAN_MOTION_DOT":2.97e-6,"MEAN_MOTION_DDOT":0},{"OBJECT_NAME":"ONEWEB-0199","OBJECT_ID":"2021-031AA","EPOCH":"2026-02-26T04:56:02.524992","MEAN_MOTION":13.14501255,"ECCENTRICITY":0.00015089,"INCLINATION":87.9002,"RA_OF_ASC_NODE":311.8303,"ARG_OF_PERICENTER":79.685,"MEAN_ANOMALY":280.445,"EPHEMERIS_TYPE":0,"CLASSIFICATION_TYPE":"U","NORAD_CAT_ID":48234,"ELEMENT_SET_NO":999,"REV_AT_EPOCH":23368,"BSTAR":-0.00017984007,"MEAN_MOTION_DOT":-5.4e-7,"MEAN_MOTION_DDOT":0},{"OBJECT_NAME":"ONEWEB-0203","OBJECT_ID":"2021-031AB","EPOCH":"2026-02-26T04:42:21.391488","MEAN_MOTION":13.14502224,"ECCENTRICITY":0.00016525,"INCLINATION":87.901,"RA_OF_ASC_NODE":311.8308,"ARG_OF_PERICENTER":87.8362,"MEAN_ANOMALY":272.2957,"EPHEMERIS_TYPE":0,"CLASSIFICATION_TYPE":"U","NORAD_CAT_ID":48235,"ELEMENT_SET_NO":999,"REV_AT_EPOCH":23369,"BSTAR":-0.00034799005,"MEAN_MOTION_DOT":-1.16e-6,"MEAN_MOTION_DDOT":0},{"OBJECT_NAME":"ONEWEB-0197","OBJECT_ID":"2021-031AC","EPOCH":"2026-02-26T05:55:13.685952","MEAN_MOTION":13.14501111,"ECCENTRICITY":0.00017337,"INCLINATION":87.9004,"RA_OF_ASC_NODE":311.821,"ARG_OF_PERICENTER":68.2592,"MEAN_ANOMALY":291.8722,"EPHEMERIS_TYPE":0,"CLASSIFICATION_TYPE":"U","NORAD_CAT_ID":48236,"ELEMENT_SET_NO":999,"REV_AT_EPOCH":23361,"BSTAR":0.00016902433,"MEAN_MOTION_DOT":7.5e-7,"MEAN_MOTION_DDOT":0},{"OBJECT_NAME":"ONEWEB-0194","OBJECT_ID":"2021-031AD","EPOCH":"2026-02-26T05:25:44.696064","MEAN_MOTION":13.14501606,"ECCENTRICITY":0.00014866,"INCLINATION":87.9002,"RA_OF_ASC_NODE":311.8421,"ARG_OF_PERICENTER":83.0058,"MEAN_ANOMALY":277.1241,"EPHEMERIS_TYPE":0,"CLASSIFICATION_TYPE":"U","NORAD_CAT_ID":48237,"ELEMENT_SET_NO":999,"REV_AT_EPOCH":23378,"BSTAR":0.00058005536,"MEAN_MOTION_DOT":2.28e-6,"MEAN_MOTION_DDOT":0},{"OBJECT_NAME":"ONEWEB-0193","OBJECT_ID":"2021-031AE","EPOCH":"2026-02-26T05:48:34.561152","MEAN_MOTION":13.14501654,"ECCENTRICITY":0.00012568,"INCLINATION":87.9002,"RA_OF_ASC_NODE":311.8311,"ARG_OF_PERICENTER":85.5003,"MEAN_ANOMALY":274.627,"EPHEMERIS_TYPE":0,"CLASSIFICATION_TYPE":"U","NORAD_CAT_ID":48238,"ELEMENT_SET_NO":999,"REV_AT_EPOCH":23373,"BSTAR":0.00037605065,"MEAN_MOTION_DOT":1.52e-6,"MEAN_MOTION_DDOT":0},{"OBJECT_NAME":"ONEWEB-0191","OBJECT_ID":"2021-031AF","EPOCH":"2026-02-26T06:04:33.376512","MEAN_MOTION":13.14501392,"ECCENTRICITY":0.00016337,"INCLINATION":87.9009,"RA_OF_ASC_NODE":311.8237,"ARG_OF_PERICENTER":78.0753,"MEAN_ANOMALY":282.056,"EPHEMERIS_TYPE":0,"CLASSIFICATION_TYPE":"U","NORAD_CAT_ID":48239,"ELEMENT_SET_NO":999,"REV_AT_EPOCH":23359,"BSTAR":-0.00022203043,"MEAN_MOTION_DOT":-7.0e-7,"MEAN_MOTION_DDOT":0},{"OBJECT_NAME":"ONEWEB-0195","OBJECT_ID":"2021-031AG","EPOCH":"2026-02-26T05:31:27.234912","MEAN_MOTION":13.14501578,"ECCENTRICITY":0.00020012,"INCLINATION":87.9004,"RA_OF_ASC_NODE":311.8257,"ARG_OF_PERICENTER":86.0741,"MEAN_ANOMALY":274.0618,"EPHEMERIS_TYPE":0,"CLASSIFICATION_TYPE":"U","NORAD_CAT_ID":48240,"ELEMENT_SET_NO":999,"REV_AT_EPOCH":23357,"BSTAR":0.00063710402,"MEAN_MOTION_DOT":2.49e-6,"MEAN_MOTION_DDOT":0},{"OBJECT_NAME":"ONEWEB-0201","OBJECT_ID":"2021-031AH","EPOCH":"2026-02-26T05:14:31.672896","MEAN_MOTION":13.14502186,"ECCENTRICITY":0.0001953,"INCLINATION":87.8994,"RA_OF_ASC_NODE":311.8575,"ARG_OF_PERICENTER":74.0546,"MEAN_ANOMALY":286.0799,"EPHEMERIS_TYPE":0,"CLASSIFICATION_TYPE":"U","NORAD_CAT_ID":48241,"ELEMENT_SET_NO":999,"REV_AT_EPOCH":23380,"BSTAR":0.00053415066,"MEAN_MOTION_DOT":2.11e-6,"MEAN_MOTION_DDOT":0},{"OBJECT_NAME":"ONEWEB-0207","OBJECT_ID":"2021-031AJ","EPOCH":"2026-02-26T04:45:48.055968","MEAN_MOTION":13.14486759,"ECCENTRICITY":0.00019545,"INCLINATION":87.9006,"RA_OF_ASC_NODE":311.8319,"ARG_OF_PERICENTER":73.1028,"MEAN_ANOMALY":287.0316,"EPHEMERIS_TYPE":0,"CLASSIFICATION_TYPE":"U","NORAD_CAT_ID":48242,"ELEMENT_SET_NO":999,"REV_AT_EPOCH":23371,"BSTAR":-0.00041151452,"MEAN_MOTION_DOT":-1.4e-6,"MEAN_MOTION_DDOT":0},{"OBJECT_NAME":"ONEWEB-0208","OBJECT_ID":"2021-031AK","EPOCH":"2026-02-26T06:09:07.331904","MEAN_MOTION":13.14501338,"ECCENTRICITY":0.00018976,"INCLINATION":87.9005,"RA_OF_ASC_NODE":311.8334,"ARG_OF_PERICENTER":85.8444,"MEAN_ANOMALY":274.2903,"EPHEMERIS_TYPE":0,"CLASSIFICATION_TYPE":"U","NORAD_CAT_ID":48243,"ELEMENT_SET_NO":999,"REV_AT_EPOCH":23373,"BSTAR":-0.0001699456,"MEAN_MOTION_DOT":-5.0e-7,"MEAN_MOTION_DDOT":0},{"OBJECT_NAME":"ONEWEB-0200","OBJECT_ID":"2021-031AL","EPOCH":"2026-02-26T05:16:36.215904","MEAN_MOTION":13.14501435,"ECCENTRICITY":0.0001814,"INCLINATION":87.9,"RA_OF_ASC_NODE":311.83,"ARG_OF_PERICENTER":81.2398,"MEAN_ANOMALY":278.8937,"EPHEMERIS_TYPE":0,"CLASSIFICATION_TYPE":"U","NORAD_CAT_ID":48244,"ELEMENT_SET_NO":999,"REV_AT_EPOCH":23365,"BSTAR":0.00055210746,"MEAN_MOTION_DOT":2.17e-6,"MEAN_MOTION_DDOT":0},{"OBJECT_NAME":"ONEWEB-0217","OBJECT_ID":"2021-031AM","EPOCH":"2026-02-26T05:39:26.840448","MEAN_MOTION":13.14501392,"ECCENTRICITY":0.00019572,"INCLINATION":87.9009,"RA_OF_ASC_NODE":311.8257,"ARG_OF_PERICENTER":87.3935,"MEAN_ANOMALY":272.7418,"EPHEMERIS_TYPE":0,"CLASSIFICATION_TYPE":"U","NORAD_CAT_ID":48245,"ELEMENT_SET_NO":999,"REV_AT_EPOCH":23360,"BSTAR":0.00059272551,"MEAN_MOTION_DOT":2.33e-6,"MEAN_MOTION_DDOT":0},{"OBJECT_NAME":"ONEWEB-0211","OBJECT_ID":"2021-045A","EPOCH":"2026-02-26T02:59:49.446240","MEAN_MOTION":13.16142987,"ECCENTRICITY":0.00018365,"INCLINATION":87.8955,"RA_OF_ASC_NODE":281.2821,"ARG_OF_PERICENTER":100.3286,"MEAN_ANOMALY":259.8052,"EPHEMERIS_TYPE":0,"CLASSIFICATION_TYPE":"U","NORAD_CAT_ID":48767,"ELEMENT_SET_NO":999,"REV_AT_EPOCH":22983,"BSTAR":0.00027031433,"MEAN_MOTION_DOT":1.16e-6,"MEAN_MOTION_DDOT":0},{"OBJECT_NAME":"ONEWEB-0223","OBJECT_ID":"2021-045B","EPOCH":"2026-02-26T03:35:21.911424","MEAN_MOTION":13.15546789,"ECCENTRICITY":0.0001635,"INCLINATION":87.8959,"RA_OF_ASC_NODE":281.3562,"ARG_OF_PERICENTER":102.8612,"MEAN_ANOMALY":257.2701,"EPHEMERIS_TYPE":0,"CLASSIFICATION_TYPE":"U","NORAD_CAT_ID":48768,"ELEMENT_SET_NO":999,"REV_AT_EPOCH":22980,"BSTAR":0.00053813062,"MEAN_MOTION_DOT":2.15e-6,"MEAN_MOTION_DDOT":0},{"OBJECT_NAME":"ONEWEB-0230","OBJECT_ID":"2021-045C","EPOCH":"2026-02-26T01:04:46.083648","MEAN_MOTION":13.15548314,"ECCENTRICITY":0.00013421,"INCLINATION":87.8943,"RA_OF_ASC_NODE":281.4016,"ARG_OF_PERICENTER":85.2521,"MEAN_ANOMALY":274.8762,"EPHEMERIS_TYPE":0,"CLASSIFICATION_TYPE":"U","NORAD_CAT_ID":48769,"ELEMENT_SET_NO":999,"REV_AT_EPOCH":23005,"BSTAR":-0.00013393632,"MEAN_MOTION_DOT":-3.8e-7,"MEAN_MOTION_DDOT":0},{"OBJECT_NAME":"ONEWEB-0237","OBJECT_ID":"2021-045D","EPOCH":"2026-02-26T02:38:18.701952","MEAN_MOTION":13.15547061,"ECCENTRICITY":0.00014663,"INCLINATION":87.8946,"RA_OF_ASC_NODE":281.3897,"ARG_OF_PERICENTER":97.5668,"MEAN_ANOMALY":262.5629,"EPHEMERIS_TYPE":0,"CLASSIFICATION_TYPE":"U","NORAD_CAT_ID":48770,"ELEMENT_SET_NO":999,"REV_AT_EPOCH":22978,"BSTAR":-0.0002109968,"MEAN_MOTION_DOT":-6.7e-7,"MEAN_MOTION_DDOT":0}]
